TRANSPORTER-11 OBJECT A 
1 60468U 24149A   26068.74646182  .00010774  00000+0  36054-3 0  9993
2 60468  97.3780 149.0949 0003110 191.0010 169.1164 15.31141332 86830
STARLINK-35545          
1 66109U 25236Z   26068.48490258  .00029319  00000+0  99838-3 0  9995
2 66109  53.1600 104.7940 0001675  77.2050 282.9138 15.30191407 22912
